CCSDS_OEM_VERS = 2.0
CREATION_DATE  = 2023-11-10T23:18:19.828
ORIGINATOR     = NASA/JSC/FOD/TOPO

META_START
OBJECT_NAME          = ISS
OBJECT_ID            = 1998-067-A
CENTER_NAME          = Earth
REF_FRAME            = EME2000
TIME_SYSTEM          = UTC
START_TIME           = 2023-11-10T16:07:38.584
USEABLE_START_TIME   = 2023-11-10T16:07:38.584
USEABLE_STOP_TIME    = 2023-11-25T16:07:38.584
STOP_TIME            = 2023-11-25T16:07:38.584
META_STOP

COMMENT Source: This file was produced by the TOPO office within FOD at JSC.
COMMENT Units are in kg and m^2
COMMENT MASS=458089.00
COMMENT DRAG_AREA=1487.80
COMMENT DRAG_COEFF=1.90
COMMENT SOLAR_RAD_AREA=0.00
COMMENT SOLAR_RAD_COEFF=0.00
COMMENT Orbits start at the ascending node epoch
COMMENT ISS first asc. node: EPOCH = 2023-11-10T16:17:03.297 $ ORBIT = 2450 $ LAN(DEG) = 29.09159
COMMENT ISS last asc. node : EPOCH = 2023-11-25T15:23:37.624 $ ORBIT = 2682 $ LAN(DEG) = -46.36754
COMMENT Begin sequence of events
COMMENT TRAJECTORY EVENT SUMMARY:
COMMENT 
COMMENT |       EVENT        |       TIG        | ORB |   DV    |   HA    |   HP    |
COMMENT |                    |       GMT        |     |   M/S   |   KM    |   KM    |
COMMENT |                    |                  |     |  (F/S)  |  (NM)   |  (NM)   |
COMMENT =============================================================================
COMMENT  SpX-29 Docking        315:10:15:00.000             0.0     423.9     413.4
COMMENT                                                    (0.0)   (228.9)   (223.2)
COMMENT 
COMMENT =============================================================================
COMMENT End sequence of events
2023-11-19T06:44:00.000 2359.759772688190 4950.673597714470 4006.877657395220 -4.09063104159794 5.14586972863241 -3.93770762647686
2023-11-19T06:48:00.000 1304.095613935080 5990.563026090070 2927.162828142470 -4.65287185019383 3.46682465965414 -5.00487482362895
2023-11-19T06:52:00.000 153.529520821866 6594.472818477680 1633.808551163440 -4.87659742002596 1.53496446556568 -5.70705282902909
2023-11-19T06:56:00.000 -1008.206129671150 6718.397943066310 221.186558276167 -4.74539161017422 -0.50846209085836 -5.99265245100530
2023-11-19T07:00:00.000 -2096.582109671830 6353.470243353340 -1207.592249670210 -4.26909238779610 -2.51375872190874 -5.84094741713416
2023-11-19T07:04:00.000 -3032.532566912940 5526.607730035670 -2548.344687087100 -3.48308090933867 -4.33436352617830 -5.26375492604053
2023-11-19T07:08:00.000 -3748.274826929230 4298.393836079460 -3703.533810229130 -2.44534699048556 -5.83805671316458 -4.30423184617872
2023-11-19T07:12:00.000 -4192.199542350570 2758.431926661290 -4589.392169777930 -1.23177318376491 -6.91666107093474 -3.03314838883990
2023-11-19T07:16:00.000 -4332.479137152650 1018.647209471790 -5141.895875101730 0.06969317450111 -7.49335065141933 -1.54320561710235
2023-11-19T07:20:00.000 -4159.211797163860 -794.871402165631 -5321.220257153910 1.36537618055133 -7.52751537089080 0.05787121440698
2023-11-19T07:24:00.000 -3685.012385403310 -2550.879604442830 -5114.443339587690 2.56236724035365 -7.01696134832588 1.65488588203539
2023-11-19T07:28:00.000 -2944.086278395230 -4122.233676484860 -4536.420334496240 3.57465260980843 -5.99788733923442 3.13285115747132
2023-11-19T07:32:00.000 -1989.864879548370 -5394.894790970080 -3628.799328214840 4.32896781083053 -4.54274625067116 4.38477750748218
2023-11-19T07:36:00.000 -891.300750499552 -6276.137478023100 -2457.187647526490 4.77004815557480 -2.75576621121393 5.31920261849507
2023-11-19T07:40:00.000 271.999624389140 -6701.404789946350 -1106.578214399730 4.86499166954266 -0.76609106879540 5.86711623594206
2023-11-19T07:44:00.000 1415.512769159420 -6639.219967048200 324.736510110815 4.60603398055025 1.28141676831326 5.98743915691463
2023-11-19T07:48:00.000 2455.988220387160 -6093.720225827510 1732.331139218600 4.01157067668959 3.23671338394286 5.67059686936933
2023-11-19T07:52:00.000 3317.639044012830 -5104.496301182580 3013.414955988240 3.12498924289590 4.95637089053236 4.93968931373864
2023-11-19T07:56:00.000 3937.765688090800 -3743.644765690480 4074.488125675640 2.01124201180101 6.31465224547742 3.84849237357024
2023-11-19T08:00:00.000 4271.348578580320 -2110.366075062730 4838.224000225000 0.75175596138008 7.21279918164646 2.47712690083431
2023-11-19T08:04:00.000 4294.274358474410 -323.595698493407 5249.078147183320 -0.56178727026163 7.58604608606888 0.92579966459025
2023-11-19T08:08:00.000 4004.990552863010 1486.704939430590 5277.223965840370 -1.83418739281654 7.40773061387046 -0.69266887391827
2023-11-19T08:12:00.000 3424.549968615310 3188.921408932200 4920.637063807900 -2.97333633757695 6.69080544730107 -2.26075643604333
2023-11-19T08:16:00.000 2595.099221691140 4659.250354614660 4205.240925461270 -3.89662555093822 5.48704568830733 -3.66448128746178
2023-11-19T08:20:00.000 1576.871785890240 5790.641493005160 3183.077084018580 -4.53682310595194 3.88351079490963 -4.80145990924471
2023-11-19T08:24:00.000 443.888106063693 6500.622188387000 1928.612795584610 -4.84702910857570 1.99677671355092 -5.58838367863388
2023-11-19T08:28:00.000 -721.409415001914 6737.436800133030 533.366270765026 -4.80445290925153 -0.03530645979202 -5.96740890069382
2023-11-19T08:32:00.000 -1834.220141398230 6483.957141805780 -900.812385830496 -4.41238456337064 -2.06388194080496 -5.91088822155259
2023-11-19T08:36:00.000 -2813.664059281460 5758.954446903300 -2269.311856785970 -3.69998074991454 -3.94059092347350 -5.42358139396040
2023-11-19T08:40:00.000 -3588.741085328580 4615.607283372980 -3472.517261235690 -2.71985568115804 -5.52886781054595 -4.54206038388370
2023-11-19T08:44:00.000 -4103.492063201640 3137.417831629300 -4423.119463523980 -1.54389721301937 -6.71415222583272 -3.33155374916094
2023-11-19T08:48:00.000 -4320.959189350940 1431.910113088110 -5052.378768058430 -0.25752120399759 -7.41191895037258 -1.88054353340294
2023-11-19T08:52:00.000 -4225.678847650080 -377.256284710695 -5314.916117187550 1.04661616066990 -7.57287965319945 -0.29404353253417
2023-11-19T08:56:00.000 -3824.662982184690 -2159.130906417350 -5191.817494937420 2.27494260871238 -7.18587306865416 1.31368975189433
2023-11-19T09:00:00.000 -3146.854392474770 -3784.737488054500 -4691.916742155150 3.33929648590084 -6.27838406055637 2.82698674508424
2023-11-19T09:04:00.000 -2241.113112201420 -5136.179193432660 -3851.205277940340 4.16280396362251 -4.91480824189662 4.13648019134699
2023-11-19T09:08:00.000 -1172.845951947820 -6115.084769295070 -2730.404707572710 4.68531004412621 -3.19262157314837 5.14670025976171
2023-11-19T09:12:00.000 -19.416238777698 -6649.836791830050 -1410.761085607860 4.86799787748801 -1.23604544548597 5.78317623448389
2023-11-19T09:16:00.000 1135.406727210430 -6701.006505230790 11.735713358882 4.69673531377408 0.81253310407615 5.99839416994679
2023-11-19T09:20:00.000 2207.590010650630 -6264.457836660180 1433.359985680730 4.18348752056683 2.80327446243930 5.77585089377124
2023-11-19T09:24:00.000 3119.045285989610 -5371.783259743420 2750.318191879950 3.36555908088155 4.59017686054823 5.13153902276315
2023-11-19T09:28:00.000 3803.431202969900 -4088.013374194070 3866.473130328220 2.30289276131636 6.04242570690593 4.11283225063639
2023-11-19T09:32:00.000 4211.042230724840 -2506.732339494520 4700.455352379690 1.07322954902796 7.05434350582540 2.79457101625365
2023-11-19T09:36:00.000 4312.371809263210 -743.110448427143 5191.578509089050 -0.23387712677601 7.55274936460445 1.27318257598259
2023-11-19T09:40:00.000 4100.176414105630 1074.542979802760 5304.179729078990 -1.52359046444219 7.50192986599177 -0.34053248592860
2023-11-19T09:44:00.000 3589.929635441550 2814.083597844760 5030.113383045080 -2.70255552863397 6.90576354405860 -1.92942394436867
2023-11-19T09:48:00.000 2818.681461370370 4349.022369139570 4389.301361183300 -3.68534157044131 5.80723929677374 -3.37808210213372
2023-11-19T09:52:00.000 1842.432277656660 5567.640221732500 3428.345140601890 -4.40044061079963 4.28577864943523 -4.58093730066275
2023-11-19T09:56:00.000 732.129979470295 6381.135485459650 2217.225975066810 -4.79557264702186 2.45185131555090 -5.44992743924913
2023-11-19T10:00:00.000 -431.455830550796 6730.203345675000 844.273777275455 -4.84173458858602 0.43930848770762 -5.92123098033900
2023-11-19T10:04:00.000 -1563.650454370690 6589.494176400210 -590.303361665176 -4.53562382939129 -1.60452217039060 -5.96034820974787
2023-11-19T10:08:00.000 -2582.131799272200 5969.523897679140 -1981.841841112370 -3.90003788672117 -3.53002911932908 -5.56490574783140
2023-11-19T10:12:00.000 -3413.021177465460 4915.822893657740 -3228.999419566960 -2.98204274560519 -5.19691984284264 -4.76472201337227
2023-11-19T10:16:00.000 -3996.273293594440 3505.405278592200 -4241.209935907930 -1.84906042598674 -6.48473092662175 -3.61913151170052
2023-11-19T10:20:00.000 -4289.940824586130 1840.943008625370 -4945.215466968510 -0.58351543505910 -7.30131117456248 -2.21206771942142
2023-11-19T10:24:00.000 -4273.057356540740 43.199292000403 -5290.223962386010 0.72324266401785 -7.58886191283262 -0.64562771500328
2023-11-19T10:28:00.000 -3947.001665634650 -1757.676650744780 -5251.383637969770 1.97741380638944 -7.32728617527056 0.96736681624073
2023-11-19T10:32:00.000 -3335.330369152090 -3431.354573662260 -4831.459301435510 3.08901899785111 -6.53518259819452 2.51087638600130
2023-11-19T10:36:00.000 -2482.129125221690 -4856.524606107650 -4060.665916911990 3.97793059702021 -5.26872988786277 3.87350602762363
2023-11-19T10:40:00.000 -1448.973050516170 -5929.545933974430 -2994.629075574650 4.57940708081247 -3.61825068226985 4.95612789700646
2023-11-19T10:44:00.000 -310.628482894313 -6572.013205653150 -1710.563947174570 4.84899862305019 -1.70255589915594 5.67912338290497
2023-11-19T10:48:00.000 850.282245698896 -6736.658461005740 -301.806765194780 4.76616354147674 0.33922487284675 5.98867827201026
